IRIDIUM 135             
1 43070U 17083A   26203.52420385 -.00000021  00000+0 -14673-4 0  9994
2 43070  86.3986 307.2454 0002116  95.1332 265.0105 14.34217301449219
IRIDIUM 138             
1 43071U 17083B   26203.34026755  .00000088  00000+0  24353-4 0  9995
2 43071  86.3999 307.0230 0002071  95.8067 264.3365 14.34217601449174
IRIDIUM 116             
1 43072U 17083C   26203.58763017  .00000202  00000+0  64892-4 0  9991
2 43072  86.3985 307.2043 0002527  96.6328 263.5155 14.34218137449240
IRIDIUM 130             
1 43073U 17083D   26203.34661092  .00000138  00000+0  42174-4 0  9993
2 43073  86.3993 307.5838 0002338 100.1966 259.9493 14.34218329449151
IRIDIUM 151             
1 43074U 17083E   26203.32124045  .00000084  00000+0  22976-4 0  9992
2 43074  86.3988 307.3741 0002272  94.9999 265.1456 14.34218113449171
IRIDIUM 134             
1 43075U 17083F   26203.28952766 -.00000016  00000+0 -12741-4 0  9993
2 43075  86.3987 307.3961 0002144  96.5194 263.6246 14.34217398449138
IRIDIUM 137             
1 43076U 17083G   26203.58128777  .00000005  00000+0 -52754-5 0  9990
2 43076  86.3989 307.3675 0002520  89.9760 270.1725 14.34217569449243
IRIDIUM 141             
1 43077U 17083H   26203.29587005  .00000207  00000+0  66714-4 0  9995
2 43077  86.3984 307.3155 0002165  94.3082 265.8361 14.34218481449201
IRIDIUM 153             
1 43078U 17083J   26203.45735407  .00000016  00000+0 -13920-5 0  9996
2 43078  86.3953 275.7254 0002037  96.7134 263.4294 14.34217586450338
IRIDIUM 131             
1 43079U 17083K   26203.28318495  .00000044  00000+0  86737-5 0  9998
2 43079  86.3991 307.5090 0002201  92.9840 267.1607 14.34217940449137
IRIDIUM 144             
1 43249U 18030A   26203.46369690  .00000115  00000+0  33935-4 0  9993
2 43249  86.3951 275.6514 0002402  95.8118 264.3352 14.34217985435197
IRIDIUM 149             
1 43250U 18030B   26203.26073403  .00000012  00000+0 -27142-5 0  9998
2 43250  86.3950 275.7027 0002121  93.9258 266.2180 14.34217573435182
IRIDIUM 157             
1 43251U 18030C   26203.27976191  .00000037  00000+0  60857-5 0  9992
2 43251  86.3949 275.7487 0002250  94.7559 265.3894 14.34217880435168
IRIDIUM 140             
1 43252U 18030D   26203.43832672  .00000154  00000+0  47883-4 0  9999
2 43252  86.3951 275.6952 0002247  96.1658 263.9794 14.34218155435248
IRIDIUM 145             
1 43253U 18030E   26203.28610541  .00000037  00000+0  62127-5 0  9991
2 43253  86.3948 275.7305 0002587  96.5922 263.5568 14.34217597435157
IRIDIUM 146             
1 43254U 18030F   26203.26707763  .00000017  00000+0 -10264-5 0  9997
2 43254  86.3951 275.7506 0002238  95.1889 264.9562 14.34217384435169
IRIDIUM 148             
1 43255U 18030G   26203.44466943  .00000095  00000+0  26823-4 0  9992
2 43255  86.3952 275.7205 0002294  92.7303 267.4155 14.34218264435224
IRIDIUM 142             
1 43256U 18030H   26203.27341978  .00000167  00000+0  52676-4 0  9999
2 43256  86.3948 275.6796 0002439  95.5594 264.5880 14.34218298435161
IRIDIUM 150             
1 43257U 18030J   26203.24170722  .00000016  00000+0 -12830-5 0  9997
2 43257  86.3950 275.8103 0002342  95.7694 264.3769 14.34217187435187
IRIDIUM 143             
1 43258U 18030K   26203.29244729  .00000031  00000+0  39142-5 0  9993
2 43258  86.3953 275.8830 0002356  95.9811 264.1654 14.34217861435120
IRIDIUM 161             
1 43478U 18047C   26203.59706118  .00000228  00000+0  61721-4 0  9998
2 43478  86.4454  73.6609 0002124  81.0065 279.1376 14.43278465430241
IRIDIUM 152             
1 43479U 18047D   26203.61400728 -.00000036  00000+0 -19912-4 0  9994
2 43479  86.3924  73.5149 0001943  84.3057 275.8360 14.34217366427566
IRIDIUM 147             
1 43480U 18047E   26203.34127622  .00000025  00000+0  16920-5 0  9998
2 43480  86.3930  73.6351 0002298  87.0908 273.0551 14.34217653427527
IRIDIUM 110             
1 43481U 18047F   26203.13831118  .00000202  00000+0  64935-4 0  9993
2 43481  86.3934  73.8130 0001991  78.8895 281.2524 14.34217989427489
IRIDIUM 162             
1 43482U 18047G   26203.59075238  .00000230  00000+0  62353-4 0  9990
2 43482  86.4452  73.5541 0002175  86.8268 273.3182 14.43281262430231
IRIDIUM 160             
1 43569U 18061A   26203.50275908  .00000109  00000+0  31818-4 0  9996
2 43569  86.3939  42.0239 0002198  86.8544 273.2903 14.34218242418439
IRIDIUM 166             
1 43570U 18061B   26203.03975169 -.00000027  00000+0 -16877-4 0  9991
2 43570  86.3932  42.1678 0002187  90.3469 269.7977 14.34217096418398
IRIDIUM 158             
1 43571U 18061C   26203.56618551  .00000163  00000+0  51081-4 0  9994
2 43571  86.3937  41.9572 0002118  89.5038 270.6401 14.34218480418436
IRIDIUM 165             
1 43572U 18061D   26203.31248269  .00000129  00000+0  38873-4 0  9999
2 43572  86.3942  42.1105 0002258  90.3049 269.8406 14.34218013418421
IRIDIUM 155             
1 43573U 18061E   26203.48373180  .00000066  00000+0  16548-4 0  9994
2 43573  86.3935  41.9061 0002184  90.8795 269.2651 14.34218019418414
