OBJECT_NAME,OBJECT_ID,EPOCH,MEAN_MOTION,ECCENTRICITY,INCLINATION,RA_OF_ASC_NODE,ARG_OF_PERICENTER,MEAN_ANOMALY,EPHEMERIS_TYPE,CLASSIFICATION_TYPE,NORAD_CAT_ID,ELEMENT_SET_NO,REV_AT_EPOCH,BSTAR,MEAN_MOTION_DOT,MEAN_MOTION_DDOT
IRIDIUM 135,2017-083A,2026-07-22T12:34:51.212640,14.34217301,.00021167,86.3986,307.2454,95.1332,265.0105,0,U,43070,999,44921,-.14672765E-4,-.21E-6,0
IRIDIUM 138,2017-083B,2026-07-22T08:09:59.116320,14.34217601,.00020717,86.3999,307.0230,95.8067,264.3365,0,U,43071,999,44917,.24352916E-4,.88E-6,0
IRIDIUM 116,2017-083C,2026-07-22T14:06:11.246688,14.34218137,.00025273,86.3985,307.2043,96.6328,263.5155,0,U,43072,999,44924,.64892265E-4,.202E-5,0
IRIDIUM 130,2017-083D,2026-07-22T08:19:07.183488,14.34218329,.0002338,86.3993,307.5838,100.1966,259.9493,0,U,43073,999,44915,.42173597E-4,.138E-5,0
IRIDIUM 151,2017-083E,2026-07-22T07:42:35.174880,14.34218113,.00022728,86.3988,307.3741,94.9999,265.1456,0,U,43074,999,44917,.22976306E-4,.84E-6,0
IRIDIUM 134,2017-083F,2026-07-22T06:56:55.189824,14.34217398,.00021446,86.3987,307.3961,96.5194,263.6246,0,U,43075,999,44913,-.12740779E-4,-.16E-6,0
IRIDIUM 137,2017-083G,2026-07-22T13:57:03.263328,14.34217569,.00025205,86.3989,307.3675,89.9760,270.1725,0,U,43076,999,44924,-.52754E-5,.5E-7,0
IRIDIUM 141,2017-083H,2026-07-22T07:06:03.172320,14.34218481,.00021653,86.3984,307.3155,94.3082,265.8361,0,U,43077,999,44920,.66714243E-4,.207E-5,0
IRIDIUM 153,2017-083J,2026-07-22T10:58:35.391648,14.34217586,.00020371,86.3953,275.7254,96.7134,263.4294,0,U,43078,999,45033,-.1391969E-5,.16E-6,0
IRIDIUM 131,2017-083K,2026-07-22T06:47:47.179680,14.34217940,.00022011,86.3991,307.5090,92.9840,267.1607,0,U,43079,999,44913,.8673695E-5,.44E-6,0
IRIDIUM 144,2018-030A,2026-07-22T11:07:43.412160,14.34217985,.00024026,86.3951,275.6514,95.8118,264.3352,0,U,43249,999,43519,.33935179E-4,.115E-5,0
IRIDIUM 149,2018-030B,2026-07-22T06:15:27.420192,14.34217573,.00021214,86.3950,275.7027,93.9258,266.2180,0,U,43250,999,43518,-.2714172E-5,.12E-6,0
IRIDIUM 157,2018-030C,2026-07-22T06:42:51.429024,14.34217880,.00022502,86.3949,275.7487,94.7559,265.3894,0,U,43251,999,43516,.608571E-5,.37E-6,0
IRIDIUM 140,2018-030D,2026-07-22T10:31:11.428608,14.34218155,.00022477,86.3951,275.6952,96.1658,263.9794,0,U,43252,999,43524,.47883164E-4,.154E-5,0
IRIDIUM 145,2018-030E,2026-07-22T06:51:59.507424,14.34217597,.00025874,86.3948,275.7305,96.5922,263.5568,0,U,43253,999,43515,.6212705E-5,.37E-6,0
IRIDIUM 146,2018-030F,2026-07-22T06:24:35.507232,14.34217384,.00022384,86.3951,275.7506,95.1889,264.9562,0,U,43254,999,43516,-.1026427E-5,.17E-6,0
IRIDIUM 148,2018-030G,2026-07-22T10:40:19.438752,14.34218264,.00022943,86.3952,275.7205,92.7303,267.4155,0,U,43255,999,43522,.26823447E-4,.95E-6,0
IRIDIUM 142,2018-030H,2026-07-22T06:33:43.468992,14.34218298,.00024392,86.3948,275.6796,95.5594,264.5880,0,U,43256,999,43516,.52676296E-4,.167E-5,0
IRIDIUM 150,2018-030J,2026-07-22T05:48:03.503808,14.34217187,.00023425,86.3950,275.8103,95.7694,264.3769,0,U,43257,999,43518,-.1283035E-5,.16E-6,0
IRIDIUM 143,2018-030K,2026-07-22T07:01:07.445856,14.34217861,.00023568,86.3953,275.8830,95.9811,264.1654,0,U,43258,999,43512,.3914245E-5,.31E-6,0
IRIDIUM 161,2018-047C,2026-07-22T14:19:46.085952,14.43278465,.00021248,86.4454,73.6609,81.0065,279.1376,0,U,43478,999,43024,.61720786E-4,.228E-5,0
IRIDIUM 152,2018-047D,2026-07-22T14:44:10.228992,14.34217366,.00019438,86.3924,73.5149,84.3057,275.8360,0,U,43479,999,42756,-.19912489E-4,-.36E-6,0
IRIDIUM 147,2018-047E,2026-07-22T08:11:26.265408,14.34217653,.00022987,86.3930,73.6351,87.0908,273.0551,0,U,43480,999,42752,.1692039E-5,.25E-6,0
IRIDIUM 110,2018-047F,2026-07-22T03:19:10.085952,14.34217989,.0001991,86.3934,73.8130,78.8895,281.2524,0,U,43481,999,42748,.64935391E-4,.202E-5,0
IRIDIUM 162,2018-047G,2026-07-22T14:10:41.005632,14.43281262,.00021757,86.4452,73.5541,86.8268,273.3182,0,U,43482,999,43023,.62352582E-4,.23E-5,0
IRIDIUM 160,2018-061A,2026-07-22T12:03:58.384512,14.34218242,.00021983,86.3939,42.0239,86.8544,273.2903,0,U,43569,999,41843,.31817851E-4,.109E-5,0
IRIDIUM 166,2018-061B,2026-07-22T00:57:14.546016,14.34217096,.00021873,86.3932,42.1678,90.3469,269.7977,0,U,43570,999,41839,-.16877194E-4,-.27E-6,0
IRIDIUM 158,2018-061C,2026-07-22T13:35:18.428064,14.34218480,.00021184,86.3937,41.9572,89.5038,270.6401,0,U,43571,999,41843,.51080541E-4,.163E-5,0
IRIDIUM 165,2018-061D,2026-07-22T07:29:58.504416,14.34218013,.00022584,86.3942,42.1105,90.3049,269.8406,0,U,43572,999,41842,.38873004E-4,.129E-5,0
IRIDIUM 155,2018-061E,2026-07-22T11:36:34.427520,14.34218019,.00021841,86.3935,41.9061,90.8795,269.2651,0,U,43573,999,41841,.1654843E-4,.66E-6,0
